[{"OBJECT_NAME":"FALCONSAT-10","OBJECT_ID":"2023-174AM","EPOCH":"2026-03-09T16:51:34.085376","MEAN_MOTION":15.26670596,"ECCENTRICITY":0.00089318,"INCLINATION":97.3865,"RA_OF_ASC_NODE":145.7938,"ARG_OF_PERICENTER":169.5942,"MEAN_ANOMALY":190.5483,"EPHEMERIS_TYPE":0,"CLASSIFICATION_TYPE":"U","NORAD_CAT_ID":58291,"ELEMENT_SET_NO":999,"REV_AT_EPOCH":12958,"BSTAR":0.00025968794,"MEAN_MOTION_DOT":6.748e-5,"MEAN_MOTION_DDOT":0},{"OBJECT_NAME":"STARLINK-32328","OBJECT_ID":"2025-003C","EPOCH":"2026-03-09T00:06:19.314144","MEAN_MOTION":15.2758813,"ECCENTRICITY":0.00014278,"INCLINATION":43.0025,"RA_OF_ASC_NODE":293.1087,"ARG_OF_PERICENTER":259.7364,"MEAN_ANOMALY":100.3326,"EPHEMERIS_TYPE":0,"CLASSIFICATION_TYPE":"U","NORAD_CAT_ID":62489,"ELEMENT_SET_NO":999,"REV_AT_EPOCH":6656,"BSTAR":0.0011468565,"MEAN_MOTION_DOT":0.00031439,"MEAN_MOTION_DDOT":0}]
