FALCONSAT-10            
1 58291U 23174AM  26068.70247784  .00006748  00000+0  25969-3 0  9991
2 58291  97.3865 145.7938 0008932 169.5942 190.5483 15.26670596129582
STARLINK-32328          
1 62489U 25003C   26068.00439021  .00031439  00000+0  11469-2 0  9992
2 62489  43.0025 293.1087 0001427 259.7364 100.3326 15.27588130 66563
